CCSDS_OMM_VERS = 2.0
CREATION_DATE  = 
ORIGINATOR     = 

OBJECT_NAME    = ATLAS CENTAUR R/B
OBJECT_ID      = 1972-065B
CENTER_NAME    = EARTH
REF_FRAME      = TEME
TIME_SYSTEM    = UTC
MEAN_ELEMENT_THEORY = SGP/SGP4

EPOCH          = 2025-11-05T06:52:47.971776
MEAN_MOTION    = 14.77255890
ECCENTRICITY   = .00333181
INCLINATION    = 35.0024
RA_OF_ASC_NODE = 314.5671
ARG_OF_PERICENTER = 42.9826
MEAN_ANOMALY   = 317.3470

EPHEMERIS_TYPE = 0
CLASSIFICATION_TYPE = U
NORAD_CAT_ID   = 6155
ELEMENT_SET_NO = 999
REV_AT_EPOCH   = 82285
BSTAR          = .22962721E-3
MEAN_MOTION_DOT = .1645E-4
MEAN_MOTION_DDOT = 0

CCSDS_OMM_VERS = 2.0
CREATION_DATE  = 
ORIGINATOR     = 

OBJECT_NAME    = SL-8 R/B
OBJECT_ID      = 1975-112B
CENTER_NAME    = EARTH
REF_FRAME      = TEME
TIME_SYSTEM    = UTC
MEAN_ELEMENT_THEORY = SGP/SGP4

EPOCH          = 2025-11-05T06:23:55.833216
MEAN_MOTION    = 14.38107515
ECCENTRICITY   = .00154458
INCLINATION    = 74.0602
RA_OF_ASC_NODE = 247.7796
ARG_OF_PERICENTER = 5.1841
MEAN_ANOMALY   = 354.9470

EPHEMERIS_TYPE = 0
CLASSIFICATION_TYPE = U
NORAD_CAT_ID   = 8459
ELEMENT_SET_NO = 999
REV_AT_EPOCH   = 61398
BSTAR          = .12021346E-3
MEAN_MOTION_DOT = .339E-5
MEAN_MOTION_DDOT = 0

CCSDS_OMM_VERS = 2.0
CREATION_DATE  = 
ORIGINATOR     = 

OBJECT_NAME    = SL-3 R/B
OBJECT_ID      = 1977-057B
CENTER_NAME    = EARTH
REF_FRAME      = TEME
TIME_SYSTEM    = UTC
MEAN_ELEMENT_THEORY = SGP/SGP4

EPOCH          = 2025-11-05T04:35:10.694400
MEAN_MOTION    = 15.41728939
ECCENTRICITY   = .00081639
INCLINATION    = 97.5674
RA_OF_ASC_NODE = 111.0952
ARG_OF_PERICENTER = 21.2460
MEAN_ANOMALY   = 338.9124

EPHEMERIS_TYPE = 0
CLASSIFICATION_TYPE = U
NORAD_CAT_ID   = 10114
ELEMENT_SET_NO = 999
REV_AT_EPOCH   = 64912
BSTAR          = .29064988E-3
MEAN_MOTION_DOT = .12206E-3
MEAN_MOTION_DDOT = 0

CCSDS_OMM_VERS = 2.0
CREATION_DATE  = 
ORIGINATOR     = 

OBJECT_NAME    = SEASAT 1
OBJECT_ID      = 1978-064A
CENTER_NAME    = EARTH
REF_FRAME      = TEME
TIME_SYSTEM    = UTC
MEAN_ELEMENT_THEORY = SGP/SGP4

EPOCH          = 2025-11-05T06:09:42.311808
MEAN_MOTION    = 14.45995474
ECCENTRICITY   = .00025052
INCLINATION    = 108.0055
RA_OF_ASC_NODE = 224.4111
ARG_OF_PERICENTER = 259.4677
MEAN_ANOMALY   = 100.6186

EPHEMERIS_TYPE = 0
CLASSIFICATION_TYPE = U
NORAD_CAT_ID   = 10967
ELEMENT_SET_NO = 999
REV_AT_EPOCH   = 48852
BSTAR          = .17433238E-3
MEAN_MOTION_DOT = .484E-5
MEAN_MOTION_DDOT = 0

CCSDS_OMM_VERS = 2.0
CREATION_DATE  = 
ORIGINATOR     = 

OBJECT_NAME    = SL-14 R/B
OBJECT_ID      = 1979-011B
CENTER_NAME    = EARTH
REF_FRAME      = TEME
TIME_SYSTEM    = UTC
MEAN_ELEMENT_THEORY = SGP/SGP4

EPOCH          = 2025-11-05T05:23:22.880832
MEAN_MOTION    = 14.91698029
ECCENTRICITY   = .00175925
INCLINATION    = 82.5263
RA_OF_ASC_NODE = 214.6157
ARG_OF_PERICENTER = 110.8961
MEAN_ANOMALY   = 249.4144

EPHEMERIS_TYPE = 0
CLASSIFICATION_TYPE = U
NORAD_CAT_ID   = 11267
ELEMENT_SET_NO = 999
REV_AT_EPOCH   = 51022
BSTAR          = .76312375E-4
MEAN_MOTION_DOT = .795E-5
MEAN_MOTION_DDOT = 0

CCSDS_OMM_VERS = 2.0
CREATION_DATE  = 
ORIGINATOR     = 

OBJECT_NAME    = SL-8 R/B
OBJECT_ID      = 1979-089B
CENTER_NAME    = EARTH
REF_FRAME      = TEME
TIME_SYSTEM    = UTC
MEAN_ELEMENT_THEORY = SGP/SGP4

EPOCH          = 2025-11-05T04:07:28.604640
MEAN_MOTION    = 14.42244153
ECCENTRICITY   = .00153516
INCLINATION    = 74.0684
RA_OF_ASC_NODE = 321.5124
ARG_OF_PERICENTER = 170.2956
MEAN_ANOMALY   = 189.8500

EPHEMERIS_TYPE = 0
CLASSIFICATION_TYPE = U
NORAD_CAT_ID   = 11574
ELEMENT_SET_NO = 999
REV_AT_EPOCH   = 41815
BSTAR          = .1184765E-3
MEAN_MOTION_DOT = .365E-5
MEAN_MOTION_DDOT = 0

CCSDS_OMM_VERS = 2.0
CREATION_DATE  = 
ORIGINATOR     = 

OBJECT_NAME    = SL-14 R/B
OBJECT_ID      = 1980-005B
CENTER_NAME    = EARTH
REF_FRAME      = TEME
TIME_SYSTEM    = UTC
MEAN_ELEMENT_THEORY = SGP/SGP4

EPOCH          = 2025-11-05T06:57:40.802112
MEAN_MOTION    = 14.90712693
ECCENTRICITY   = .0014951
INCLINATION    = 82.5149
RA_OF_ASC_NODE = 65.2077
ARG_OF_PERICENTER = 213.9878
MEAN_ANOMALY   = 146.0385

EPHEMERIS_TYPE = 0
CLASSIFICATION_TYPE = U
NORAD_CAT_ID   = 11672
ELEMENT_SET_NO = 999
REV_AT_EPOCH   = 45795
BSTAR          = .95297279E-4
MEAN_MOTION_DOT = .962E-5
MEAN_MOTION_DDOT = 0

CCSDS_OMM_VERS = 2.0
CREATION_DATE  = 
ORIGINATOR     = 

OBJECT_NAME    = SL-8 R/B
OBJECT_ID      = 1981-003B
CENTER_NAME    = EARTH
REF_FRAME      = TEME
TIME_SYSTEM    = UTC
MEAN_ELEMENT_THEORY = SGP/SGP4

EPOCH          = 2025-11-05T06:21:24.403392
MEAN_MOTION    = 15.04970497
ECCENTRICITY   = .02835737
INCLINATION    = 82.9342
RA_OF_ASC_NODE = 44.6395
ARG_OF_PERICENTER = 249.8721
MEAN_ANOMALY   = 107.1794

EPHEMERIS_TYPE = 0
CLASSIFICATION_TYPE = U
NORAD_CAT_ID   = 12139
ELEMENT_SET_NO = 999
REV_AT_EPOCH   = 29592
BSTAR          = .68628887E-3
MEAN_MOTION_DOT = .24562E-3
MEAN_MOTION_DDOT = 0

CCSDS_OMM_VERS = 2.0
CREATION_DATE  = 
ORIGINATOR     = 

OBJECT_NAME    = SL-3 R/B
OBJECT_ID      = 1981-046B
CENTER_NAME    = EARTH
REF_FRAME      = TEME
TIME_SYSTEM    = UTC
MEAN_ELEMENT_THEORY = SGP/SGP4

EPOCH          = 2025-11-05T05:53:07.505664
MEAN_MOTION    = 15.38435984
ECCENTRICITY   = .00208275
INCLINATION    = 81.2324
RA_OF_ASC_NODE = 78.7455
ARG_OF_PERICENTER = 92.4622
MEAN_ANOMALY   = 267.9004

EPHEMERIS_TYPE = 0
CLASSIFICATION_TYPE = U
NORAD_CAT_ID   = 12465
ELEMENT_SET_NO = 999
REV_AT_EPOCH   = 41927
BSTAR          = .36621704E-3
MEAN_MOTION_DOT = .14022E-3
MEAN_MOTION_DDOT = 0

CCSDS_OMM_VERS = 2.0
CREATION_DATE  = 
ORIGINATOR     = 

OBJECT_NAME    = METEOR PRIRODA
OBJECT_ID      = 1981-065A
CENTER_NAME    = EARTH
REF_FRAME      = TEME
TIME_SYSTEM    = UTC
MEAN_ELEMENT_THEORY = SGP/SGP4

EPOCH          = 2025-11-05T04:05:48.824736
MEAN_MOTION    = 16.02847887
ECCENTRICITY   = .0002755
INCLINATION    = 97.4662
RA_OF_ASC_NODE = 12.8856
ARG_OF_PERICENTER = 277.0307
MEAN_ANOMALY   = 83.0659

EPHEMERIS_TYPE = 0
CLASSIFICATION_TYPE = U
NORAD_CAT_ID   = 12585
ELEMENT_SET_NO = 999
REV_AT_EPOCH   = 42477
BSTAR          = .65804522E-3
MEAN_MOTION_DOT = .392225E-2
MEAN_MOTION_DDOT = .70298413E-4

CCSDS_OMM_VERS = 2.0
CREATION_DATE  = 
ORIGINATOR     = 

OBJECT_NAME    = SL-3 R/B
OBJECT_ID      = 1981-103B
CENTER_NAME    = EARTH
REF_FRAME      = TEME
TIME_SYSTEM    = UTC
MEAN_ELEMENT_THEORY = SGP/SGP4

EPOCH          = 2025-11-04T19:19:24.126240
MEAN_MOTION    = 15.19529031
ECCENTRICITY   = .00159304
INCLINATION    = 81.1619
RA_OF_ASC_NODE = 359.7607
ARG_OF_PERICENTER = 3.8312
MEAN_ANOMALY   = 356.3037

EPHEMERIS_TYPE = 0
CLASSIFICATION_TYPE = U
NORAD_CAT_ID   = 12904
ELEMENT_SET_NO = 999
REV_AT_EPOCH   = 95425
BSTAR          = .19984357E-3
MEAN_MOTION_DOT = .4283E-4
MEAN_MOTION_DDOT = 0

CCSDS_OMM_VERS = 2.0
CREATION_DATE  = 
ORIGINATOR     = 

OBJECT_NAME    = SL-3 R/B
OBJECT_ID      = 1982-013B
CENTER_NAME    = EARTH
REF_FRAME      = TEME
TIME_SYSTEM    = UTC
MEAN_ELEMENT_THEORY = SGP/SGP4

EPOCH          = 2025-11-05T06:32:25.639872
MEAN_MOTION    = 15.20588222
ECCENTRICITY   = .00216367
INCLINATION    = 81.1725
RA_OF_ASC_NODE = 306.4560
ARG_OF_PERICENTER = 236.6875
MEAN_ANOMALY   = 123.2284

EPHEMERIS_TYPE = 0
CLASSIFICATION_TYPE = U
NORAD_CAT_ID   = 13068
ELEMENT_SET_NO = 999
REV_AT_EPOCH   = 38543
BSTAR          = .24627268E-3
MEAN_MOTION_DOT = .5453E-4
MEAN_MOTION_DDOT = 0

