ATLAS CENTAUR R/B       
1 06155U 72065B   25309.28666634  .00001645  00000+0  22963-3 0  9997
2 06155  35.0024 314.5671 0033318  42.9826 317.3470 14.77255890822857
SL-8 R/B                
1 08459U 75112B   25309.26661844  .00000339  00000+0  12021-3 0  9991
2 08459  74.0602 247.7796 0015445   5.1841 354.9470 14.38107515613981
SL-3 R/B                
1 10114U 77057B   25309.19109600  .00012206  00000+0  29065-3 0  9993
2 10114  97.5674 111.0952 0008163  21.2460 338.9124 15.41728939649120
SEASAT 1                
1 10967U 78064A   25309.25673972  .00000484  00000+0  17433-3 0  9994
2 10967 108.0055 224.4111 0002505 259.4677 100.6186 14.45995474488522
SL-14 R/B               
1 11267U 79011B   25309.22457038  .00000795  00000+0  76312-4 0  9998
2 11267  82.5263 214.6157 0017592 110.8961 249.4144 14.91698029510228
SL-8 R/B                
1 11574U 79089B   25309.17185885  .00000365  00000+0  11848-3 0  9991
2 11574  74.0684 321.5124 0015351 170.2956 189.8500 14.42244153418152
SL-14 R/B               
1 11672U 80005B   25309.29005558  .00000962  00000+0  95297-4 0  9995
2 11672  82.5149  65.2077 0014951 213.9878 146.0385 14.90712693457952
SL-8 R/B                
1 12139U 81003B   25309.26486578  .00024562  00000+0  68629-3 0  9995
2 12139  82.9342  44.6395 0283573 249.8721 107.1794 15.04970497295920
SL-3 R/B                
1 12465U 81046B   25309.24522576  .00014022  00000+0  36622-3 0  9999
2 12465  81.2324  78.7455 0020827  92.4622 267.9004 15.38435984419271
METEOR PRIRODA          
1 12585U 81065A   25309.17070399  .00392225  70298-4  65805-3 0  9996
2 12585  97.4662  12.8856 0002755 277.0307  83.0659 16.02847887424778
SL-3 R/B                
1 12904U 81103B   25308.80514035  .00004283  00000+0  19984-3 0  9993
2 12904  81.1619 359.7607 0015930   3.8312 356.3037 15.19529031954254
SL-3 R/B                
1 13068U 82013B   25309.27251898  .00005453  00000+0  24627-3 0  9993
2 13068  81.1725 306.4560 0021636 236.6875 123.2284 15.20588222385433
